NORAD_CAT_ID,OBJECT_NAME,OBJECT_TYPE,EPOCH,MEAN_MOTION,ECCENTRICITY,INCLINATION,RA_OF_ASC_NODE,ARG_OF_PERICENTER,MEAN_ANOMALY,BSTAR,MEAN_MOTION_DOT,MEAN_MOTION_DDOT,TLE_LINE0,TLE_LINE1,TLE_LINE2,SEMIMAJOR_AXIS,PERIOD,APOGEE,PERIGEE,DECAYED
52708.0,STARLINK-3962,PAYLOAD,2023-11-28 19:04:52,15.08858378,0.0001279,53.2172,268.6299,113.7731,246.3395,0.00031337,4.705e-05,0.0,0 STARLINK-3962,1 52708U 22053BE  23332.79504668  .00004705  00000-0  31337-3 0  9998,2 52708  53.2172 268.6299 0001279 113.7731 246.3395 15.08858378 85309,6917.824,95.436,540.574,538.804,0.0
52708.0,STARLINK-3962,PAYLOAD,2023-11-29 01:26:24,15.08848275,0.0001304,53.2171,267.4351,97.2937,262.8204,0.00053479,8.235e-05,0.0,0 STARLINK-3962,1 52708U 22053BE  23333.06000765  .00008235  00000-0  53479-3 0  9991,2 52708  53.2171 267.4351 0001304  97.2937 262.8204 15.08848275 85348,6917.855,95.437,540.622,538.818,0.0
52708.0,STARLINK-3962,PAYLOAD,2023-11-30 02:52:35,15.08842984,0.0001807,53.2185,262.6851,57.0843,303.0323,-5.9253e-05,-1.231e-05,0.0,0 STARLINK-3962,1 52708U 22053BE  23334.11985360 -.00001231  00000-0 -59253-4 0  9999,2 52708  53.2185 262.6851 0001807  57.0843 303.0323 15.08842984 85502,6917.871,95.437,540.986,538.486,0.0
52708.0,STARLINK-3962,PAYLOAD,2023-12-01 02:43:22,15.08842649,0.0001614,53.2178,258.2262,79.7211,280.3963,0.00027478,4.088e-05,0.0,0 STARLINK-3962,1 52708U 22053BE  23335.11345611  .00004088  00000-0  27478-3 0  9993,2 52708  53.2178 258.2262 0001614  79.7211 280.3963 15.08842649 86288,6917.872,95.437,540.854,538.621,0.0
52708.0,STARLINK-3962,PAYLOAD,2023-12-01 23:23:22,15.08855372,0.000171,53.2173,254.3616,78.1335,281.9849,0.00034274,5.173e-05,0.0,0 STARLINK-3962,1 52708U 22053BE  23335.97456974  .00005173  00000-0  34274-3 0  9990,2 52708  53.2173 254.3616 0001710  78.1335 281.9849 15.08855372 85781,6917.833,95.437,540.881,538.515,0.0
52708.0,STARLINK-3962,PAYLOAD,2023-12-02 04:09:31,15.08884795,0.0001883,53.2186,253.4607,92.0568,268.064,0.0008862,0.00013861,0.0,0 STARLINK-3962,1 52708U 22053BE  23336.17327758  .00013861  00000-0  88620-3 0  9997,2 52708  53.2186 253.4607 0001883  92.0568 268.0640 15.08884795 85819,6917.743,95.435,540.911,538.306,0.0
52708.0,STARLINK-3962,PAYLOAD,2023-12-03 00:49:33,15.0882951,0.0001819,53.2176,249.6003,71.0196,289.0993,-0.00025877,-4.403e-05,0.0,0 STARLINK-3962,1 52708U 22053BE  23337.03441634 -.00004403  00000-0 -25877-3 0  9992,2 52708  53.2176 249.6003 0001819  71.0196 289.0993 15.08829510 85940,6917.912,95.438,541.036,538.519,0.0
52708.0,STARLINK-3962,PAYLOAD,2023-12-03 04:00:19,15.08830321,0.0001735,53.2175,249.0026,106.9081,253.2102,-0.00024355,-4.161e-05,0.0,0 STARLINK-3962,1 52708U 22053BE  23337.16689379 -.00004161  00000-0 -24355-3 0  9997,2 52708  53.2175 249.0026 0001735 106.9081 253.2102 15.08830321 86595,6917.91,95.438,540.975,538.575,0.0
52708.0,STARLINK-3962,PAYLOAD,2023-12-04 00:40:20,15.08840537,0.0001635,53.2167,245.1376,104.1499,255.9675,-0.00018754,-3.272e-05,0.0,0 STARLINK-3962,1 52708U 22053BE  23338.02801495 -.00003272  00000-0 -18754-3 0  9996,2 52708  53.2167 245.1376 0001635 104.1499 255.9675 15.08840537 86092,6917.879,95.438,540.875,538.613,0.0
52708.0,STARLINK-3962,PAYLOAD,2023-12-04 18:09:35,15.08837626,0.000148,53.2163,241.8695,127.455,232.6577,0.00031786,4.774e-05,0.0,0 STARLINK-3962,1 52708U 22053BE  23338.75666353  .00004774  00000-0  31786-3 0  9994,2 52708  53.2163 241.8695 0001480 127.4550 232.6577 15.08837626 86200,6917.888,95.438,540.776,538.729,0.0
52708.0,STARLINK-3962,PAYLOAD,2023-12-05 03:41:54,15.08838169,0.0001508,53.2175,240.0852,129.7998,230.3127,0.0002333,3.427e-05,0.0,0 STARLINK-3962,1 52708U 22053BE  23339.15409975  .00003427  00000-0  23330-3 0  9994,2 52708  53.2175 240.0852 0001508 129.7998 230.3127 15.08838169 86895,6917.886,95.438,540.794,538.708,0.0
52708.0,STARLINK-3962,PAYLOAD,2023-12-05 19:35:45,15.08842407,0.0001288,53.2167,237.1111,119.5488,240.5632,0.00012543,1.709e-05,0.0,0 STARLINK-3962,1 52708U 22053BE  23339.81650201  .00001709  00000-0  12543-3 0  9992,2 52708  53.2167 237.1111 0001288 119.5488 240.5632 15.08842407 86992,6917.873,95.437,540.629,538.847,0.0
52708.0,STARLINK-3962,PAYLOAD,2023-12-06 00:21:54,15.08851496,0.0001377,53.2166,236.2177,122.6789,237.4336,0.00016652,2.364e-05,0.0,0 STARLINK-3962,1 52708U 22053BE  23340.01521410  .00002364  00000-0  16652-3 0  9998,2 52708  53.2166 236.2177 0001377 122.6789 237.4336 15.08851496 86399,6917.845,95.437,540.663,538.758,0.0
52708.0,STARLINK-3962,PAYLOAD,2023-12-06 22:37:18,15.08839141,0.0001544,53.2158,232.0559,107.9232,252.1928,-3.7061e-05,-8.78e-06,0.0,0 STARLINK-3962,1 52708U 22053BE  23340.94257870 -.00000878  00000-0 -37061-4 0  9994,2 52708  53.2158 232.0559 0001544 107.9232 252.1928 15.08839141 86533,6917.883,95.438,540.816,538.68,0.0
52708.0,STARLINK-3962,PAYLOAD,2023-12-08 01:38:52,15.08837828,0.0001506,53.2176,226.999,98.5578,261.5584,6.5552e-05,7.55e-06,0.0,0 STARLINK-3962,1 52708U 22053BE  23342.06866695  .00000755  00000-0  65552-4 0  9998,2 52708  53.2176 226.9990 0001506  98.5578 261.5584 15.08837828 86701,6917.887,95.438,540.794,538.71,0.0
52708.0,STARLINK-3962,PAYLOAD,2023-12-09 15:48:07,15.0884539,0.0001185,53.2161,219.8646,103.8853,256.2271,5.6759e-05,6.16e-06,0.0,0 STARLINK-3962,1 52708U 22053BE  23343.65841633  .00000616  00000-0  56759-4 0  9994,2 52708  53.2161 219.8646 0001185 103.8853 256.2271 15.08845390 86946,6917.864,95.437,540.549,538.909,0.0
52708.0,STARLINK-3962,PAYLOAD,2023-12-10 18:49:40,15.08844631,0.0001206,53.2161,214.8079,98.2164,261.8965,5.4311e-05,5.77e-06,0.0,0 STARLINK-3962,1 52708U 22053BE  23344.78449569  .00000577  00000-0  54311-4 0  9999,2 52708  53.2161 214.8079 0001206  98.2164 261.8965 15.08844631 87116,6917.866,95.437,540.566,538.897,0.0
52708.0,STARLINK-3962,PAYLOAD,2023-12-10 22:00:26,15.08846451,0.0001287,53.2162,214.2133,91.3245,268.7895,6.7262e-05,7.83e-06,0.0,0 STARLINK-3962,1 52708U 22053BE  23344.91697378  .00000783  00000-0  67262-4 0  9995,2 52708  53.2162 214.2133 0001287  91.3245 268.7895 15.08846451 87766,6917.861,95.437,540.616,538.835,0.0
52708.0,STARLINK-3962,PAYLOAD,2023-12-11 20:15:51,15.08838817,0.0001613,53.2179,210.0512,103.6489,256.4683,1.0266e-05,-1.25e-06,0.0,0 STARLINK-3962,1 52708U 22053BE  23345.84434046 -.00000125  00000-0  10266-4 0  9992,2 52708  53.2179 210.0512 0001613 103.6489 256.4683 15.08838817 87271,6917.884,95.438,540.865,538.633,0.0
52708.0,STARLINK-3962,PAYLOAD,2023-12-11 21:51:14,15.08836533,0.0001536,53.2176,209.7544,99.1884,260.9282,-8.5332e-06,-4.24e-06,0.0,0 STARLINK-3962,1 52708U 22053BE  23345.91058207 -.00000424  00000-0 -85332-5 0  9991,2 52708  53.2176 209.7544 0001536  99.1884 260.9282 15.08836533 87919,6917.891,95.438,540.819,538.693,0.0
52708.0,STARLINK-3962,PAYLOAD,2023-12-12 21:42:00,15.08842661,0.0001504,53.2174,205.2932,97.7994,262.3169,6.0324e-05,6.72e-06,0.0,0 STARLINK-3962,1 52708U 22053BE  23346.90417714  .00000672  00000-0  60324-4 0  9999,2 52708  53.2174 205.2932 0001504  97.7994 262.3169 15.08842661 88066,6917.872,95.437,540.778,538.697,0.0
52708.0,STARLINK-3962,PAYLOAD,2023-12-13 19:57:25,15.08837994,0.0001467,53.2169,201.13,97.0793,263.0366,7.984e-05,9.83e-06,0.0,0 STARLINK-3962,1 52708U 22053BE  23347.83153982  .00000983  00000-0  79840-4 0  9994,2 52708  53.2169 201.1300 0001467  97.0793 263.0366 15.08837994 88208,6917.887,95.438,540.766,538.737,0.0
52708.0,STARLINK-3962,PAYLOAD,2023-12-14 21:23:35,15.08838328,0.000143,53.2162,196.3678,84.3276,275.7879,1.1578e-05,-1.04e-06,0.0,0 STARLINK-3962,1 52708U 22053BE  23348.89138370 -.00000104  00000-0  11578-4 0  9995,2 52708  53.2162 196.3678 0001430  84.3276 275.7879 15.08838328 88367,6917.885,95.438,540.74,538.761,0.0
52708.0,STARLINK-3962,PAYLOAD,2023-12-15 21:14:23,15.08833748,0.000144,53.2161,191.9109,82.9619,277.1536,2.4508e-05,1.02e-06,0.0,0 STARLINK-3962,1 52708U 22053BE  23349.88498937  .00000102  00000-0  24508-4 0  9997,2 52708  53.2161 191.9109 0001440  82.9619 277.1536 15.08833748 88516,6917.899,95.438,540.761,538.768,0.0
52708.0,STARLINK-3962,PAYLOAD,2023-12-16 21:05:10,15.08838659,0.0001518,53.2167,187.4516,80.0032,280.1131,7.7225e-05,9.41e-06,0.0,0 STARLINK-3962,1 52708U 22053BE  23350.87858808  .00000941  00000-0  77225-4 0  9990,2 52708  53.2167 187.4516 0001518  80.0032 280.1131 15.08838659 88665,6917.884,95.438,540.8,538.699,0.0
52708.0,STARLINK-3962,PAYLOAD,2023-12-17 19:20:33,15.08841383,0.0001552,53.2164,183.2905,80.0062,280.1106,0.00010667,1.41e-05,0.0,0 STARLINK-3962,1 52708U 22053BE  23351.80594756  .00001410  00000-0  10667-3 0  9991,2 52708  53.2164 183.2905 0001552  80.0062 280.1106 15.08841383 88175,6917.876,95.437,540.815,538.668,0.0
52708.0,STARLINK-3962,PAYLOAD,2023-12-18 19:11:20,15.08844338,0.0001452,53.2158,178.8313,88.3819,271.734,7.3069e-05,8.75e-06,0.0,0 STARLINK-3962,1 52708U 22053BE  23352.79954517  .00000875  00000-0  73069-4 0  9995,2 52708  53.2158 178.8313 0001452  88.3819 271.7340 15.08844338 88956,6917.867,95.437,540.737,538.728,0.0
52708.0,STARLINK-3962,PAYLOAD,2023-12-19 19:02:08,15.08838237,0.0001528,53.2165,174.3652,106.8783,253.2377,-5.5118e-06,-3.76e-06,0.0,0 STARLINK-3962,1 52708U 22053BE  23353.79314923 -.00000376  00000-0 -55118-5 0  9991,2 52708  53.2165 174.3652 0001528 106.8783 253.2377 15.08838237 88474,6917.886,95.438,540.808,538.694,0.0
52708.0,STARLINK-3962,PAYLOAD,2023-12-20 18:52:55,15.08837788,0.0001502,53.2168,169.906,106.5098,253.6059,2.0068e-05,3.1e-07,0.0,0 STARLINK-3962,1 52708U 22053BE  23354.78675005  .00000031  00000-0  20068-4 0  9993,2 52708  53.2168 169.9060 0001502 106.5098 253.6059 15.08837788 89256,6917.887,95.438,540.791,538.713,0.0
52708.0,STARLINK-3962,PAYLOAD,2023-12-21 15:32:56,15.08834864,0.0001465,53.217,166.0418,107.8559,252.2593,5.7756e-05,6.31e-06,0.0,0 STARLINK-3962,1 52708U 22053BE  23355.64787323  .00000631  00000-0  57756-4 0  9996,2 52708  53.2170 166.0418 0001465 107.8559 252.2593 15.08834864 88752,6917.896,95.438,540.775,538.748,0.0
